{"type": "FeatureCollection", "features": [ {"type": "Feature", "properties": {"norad_id": 40664, "name": "SKY MEXICO-1", "group": "intelsat", "lat": -0.007833543552778531, "lon": -175.5682601117192, "alt_km": 35788.23200153676, "timestamp": "2025-12-21T11:31:42.510229+00:00", "meta": {"OBJECT_NAME": "SKY MEXICO-1", "OBJECT_ID": "2015-026B", "EPOCH": "2025-12-21T02:33:02.837376", "MEAN_MOTION": 1.00271688, "ECCENTRICITY": 0.0002344, "INCLINATION": 0.0148, "RA_OF_ASC_NODE": 348.6805, "ARG_OF_PERICENTER": 298.0643, "MEAN_ANOMALY": 122.688, "EPHEMERIS_TYPE": 0, "CLASSIFICATION_TYPE": "U", "NORAD_CAT_ID": 40664, "ELEMENT_SET_NO": 999, "REV_AT_EPOCH": 3866, "BSTAR": 0, "MEAN_MOTION_DOT": -2.11e-06, "MEAN_MOTION_DDOT": 0}, "tle": {"line1": "1 40664U 15026B   25355.10628284 -.00000211  00000+0  00000+0 0  9998", "line2": "2 40664   0.0148 348.6805 0002344 298.0643 122.6880  1.00271688 38667"}}, "geometry": {"type": "Point", "coordinates": [-175.5682601117192, -0.007833543552778531]}}, {"type": "Feature", "properties": {"norad_id": 40874, "name": "INTELSAT 34 (IS-34)", "group": "intelsat", "lat": -0.023714071338224646, "lon": -152.27398775593025, "alt_km": 35784.70658431937, "timestamp": "2025-12-21T11:31:42.510241+00:00", "meta": {"OBJECT_NAME": "INTELSAT 34 (IS-34)", "OBJECT_ID": "2015-039A", "EPOCH": "2025-12-21T02:39:39.701952", "MEAN_MOTION": 1.00271678, "ECCENTRICITY": 6.09e-05, "INCLINATION": 0.0113, "RA_OF_ASC_NODE": 322.3873, "ARG_OF_PERICENTER": 190.138, "MEAN_ANOMALY": 281.8278, "EPHEMERIS_TYPE": 0, "CLASSIFICATION_TYPE": "U", "NORAD_CAT_ID": 40874, "ELEMENT_SET_NO": 999, "REV_AT_EPOCH": 3783, "BSTAR": 0, "MEAN_MOTION_DOT": -2.62e-06, "MEAN_MOTION_DDOT": 0}, "tle": {"line1": "1 40874U 15039A   25355.11087618 -.00000262  00000+0  00000+0 0  9992", "line2": "2 40874   0.0113 322.3873 0000609 190.1380 281.8278  1.00271678 37834"}}, "geometry": {"type": "Point", "coordinates": [-152.27398775593025, -0.023714071338224646]}}, {"type": "Feature", "properties": {"norad_id": 41581, "name": "INTELSAT 31 (IS-31)", "group": "intelsat", "lat": -0.013356251801571394, "lon": 168.15654942034007, "alt_km": 35779.28929817937, "timestamp": "2025-12-21T11:31:42.510254+00:00", "meta": {"OBJECT_NAME": "INTELSAT 31 (IS-31)", "OBJECT_ID": "2016-035A", "EPOCH": "2025-12-20T14:29:23.871264", "MEAN_MOTION": 1.00271704, "ECCENTRICITY": 0.00019976, "INCLINATION": 0.0288, "RA_OF_ASC_NODE": 267.9464, "ARG_OF_PERICENTER": 295.2319, "MEAN_ANOMALY": 8.5584, "EPHEMERIS_TYPE": 0, "CLASSIFICATION_TYPE": "U", "NORAD_CAT_ID": 41581, "ELEMENT_SET_NO": 999, "REV_AT_EPOCH": 3489, "BSTAR": 0, "MEAN_MOTION_DOT": -1.27e-06, "MEAN_MOTION_DDOT": 0}, "tle": {"line1": "1 41581U 16035A   25354.60374851 -.00000127  00000+0  00000+0 0  9996", "line2": "2 41581   0.0288 267.9464 0001997 295.2319   8.5584  1.00271704 34890"}}, "geometry": {"type": "Point", "coordinates": [168.15654942034007, -0.013356251801571394]}}, {"type": "Feature", "properties": {"norad_id": 41747, "name": "INTELSAT 36 (IS-36)", "group": "intelsat", "lat": -0.017278630167026302, "lon": -28.28958168385544, "alt_km": 35782.06344876943, "timestamp": "2025-12-21T11:31:42.510288+00:00", "meta": {"OBJECT_NAME": "INTELSAT 36 (IS-36)", "OBJECT_ID": "2016-053A", "EPOCH": "2025-12-20T23:49:43.623264", "MEAN_MOTION": 1.00270733, "ECCENTRICITY": 0.0001025, "INCLINATION": 0.0107, "RA_OF_ASC_NODE": 357.7376, "ARG_OF_PERICENTER": 330.2475, "MEAN_ANOMALY": 187.7589, "EPHEMERIS_TYPE": 0, "CLASSIFICATION_TYPE": "U", "NORAD_CAT_ID": 41747, "ELEMENT_SET_NO": 999, "REV_AT_EPOCH": 3416, "BSTAR": 0, "MEAN_MOTION_DOT": -1e-08, "MEAN_MOTION_DDOT": 0}, "tle": {"line1": "1 41747U 16053A   25354.99286601 -.00000001  00000+0  00000+0 0  9998", "line2": "2 41747   0.0107 357.7376 0001025 330.2475 187.7589  1.00270733 34165"}}, "geometry": {"type": "Point", "coordinates": [-28.28958168385544, -0.017278630167026302]}}, {"type": "Feature", "properties": {"norad_id": 41945, "name": "INTELSAT 32E (IS-32E)", "group": "intelsat", "lat": 0.001201320197864814, "lon": -139.96434975773977, "alt_km": 35790.08135899273, "timestamp": "2025-12-21T11:31:42.510303+00:00", "meta": {"OBJECT_NAME": "INTELSAT 32E (IS-32E)", "OBJECT_ID": "2017-007B", "EPOCH": "2025-12-21T02:43:16.857120", "MEAN_MOTION": 1.00268588, "ECCENTRICITY": 7.4e-05, "INCLINATION": 0.0275, "RA_OF_ASC_NODE": 69.6154, "ARG_OF_PERICENTER": 319.9839, "MEAN_ANOMALY": 57.9819, "EPHEMERIS_TYPE": 0, "CLASSIFICATION_TYPE": "U", "NORAD_CAT_ID": 41945, "ELEMENT_SET_NO": 999, "REV_AT_EPOCH": 3244, "BSTAR": 0, "MEAN_MOTION_DOT": -2.46e-06, "MEAN_MOTION_DDOT": 0}, "tle": {"line1": "1 41945U 17007B   25355.11338955 -.00000246  00000+0  00000+0 0  9994", "line2": "2 41945   0.0275  69.6154 0000740 319.9839  57.9819  1.00268588 32443"}}, "geometry": {"type": "Point", "coordinates": [-139.96434975773977, 0.001201320197864814]}}, {"type": "Feature", "properties": {"norad_id": 42818, "name": "INTELSAT 35E (IS-35E)", "group": "intelsat", "lat": -0.021513164347967677, "lon": -131.28716936287628, "alt_km": 35780.71411439048, "timestamp": "2025-12-21T11:31:42.510317+00:00", "meta": {"OBJECT_NAME": "INTELSAT 35E (IS-35E)", "OBJECT_ID": "2017-041A", "EPOCH": "2025-12-21T02:45:46.616832", "MEAN_MOTION": 1.00270832, "ECCENTRICITY": 0.0001858, "INCLINATION": 0.017, "RA_OF_ASC_NODE": 28.2756, "ARG_OF_PERICENTER": 244.397, "MEAN_ANOMALY": 184.2219, "EPHEMERIS_TYPE": 0, "CLASSIFICATION_TYPE": "U", "NORAD_CAT_ID": 42818, "ELEMENT_SET_NO": 999, "REV_AT_EPOCH": 3103, "BSTAR": 0, "MEAN_MOTION_DOT": -2.15e-06, "MEAN_MOTION_DDOT": 0}, "tle": {"line1": "1 42818U 17041A   25355.11512288 -.00000215  00000+0  00000+0 0  9991", "line2": "2 42818   0.0170  28.2756 0001858 244.3970 184.2219  1.00270832 31031"}}, "geometry": {"type": "Point", "coordinates": [-131.28716936287628, -0.021513164347967677]}}, {"type": "Feature", "properties": {"norad_id": 42950, "name": "INTELSAT 37E (IS-37E)", "group": "intelsat", "lat": -0.035425830065145776, "lon": -114.79525460568425, "alt_km": 35774.69271856425, "timestamp": "2025-12-21T11:31:42.510329+00:00", "meta": {"OBJECT_NAME": "INTELSAT 37E (IS-37E)", "OBJECT_ID": "2017-059A", "EPOCH": "2025-12-21T03:48:38.471040", "MEAN_MOTION": 1.00271819, "ECCENTRICITY": 0.0002833, "INCLINATION": 0.0177, "RA_OF_ASC_NODE": 17.7899, "ARG_OF_PERICENTER": 245.6869, "MEAN_ANOMALY": 225.6628, "EPHEMERIS_TYPE": 0, "CLASSIFICATION_TYPE": "U", "NORAD_CAT_ID": 42950, "ELEMENT_SET_NO": 999, "REV_AT_EPOCH": 3028, "BSTAR": 0, "MEAN_MOTION_DOT": -1.18e-06, "MEAN_MOTION_DDOT": 0}, "tle": {"line1": "1 42950U 17059A   25355.15877860 -.00000118  00000+0  00000+0 0  9993", "line2": "2 42950   0.0177  17.7899 0002833 245.6869 225.6628  1.00271819 30287"}}, "geometry": {"type": "Point", "coordinates": [-114.79525460568425, -0.035425830065145776]}}, {"type": "Feature", "properties": {"norad_id": 43632, "name": "AZERSPACE 2 (IS-38)", "group": "intelsat", "lat": -0.027312160699128646, "lon": -51.65325024649522, "alt_km": 35782.16112015469, "timestamp": "2025-12-21T11:31:42.510341+00:00", "meta": {"OBJECT_NAME": "AZERSPACE 2 (IS-38)", "OBJECT_ID": "2018-074A", "EPOCH": "2025-12-21T03:08:29.442048", "MEAN_MOTION": 1.00271529, "ECCENTRICITY": 0.00012, "INCLINATION": 0.018, "RA_OF_ASC_NODE": 339.7282, "ARG_OF_PERICENTER": 289.6367, "MEAN_ANOMALY": 272.833, "EPHEMERIS_TYPE": 0, "CLASSIFICATION_TYPE": "U", "NORAD_CAT_ID": 43632, "ELEMENT_SET_NO": 999, "REV_AT_EPOCH": 2666, "BSTAR": 0, "MEAN_MOTION_DOT": 1.59e-06, "MEAN_MOTION_DDOT": 0}, "tle": {"line1": "1 43632U 18074A   25355.13089632  .00000159  00000+0  00000+0 0  9993", "line2": "2 43632   0.0180 339.7282 0001200 289.6367 272.8330  1.00271529 26669"}}, "geometry": {"type": "Point", "coordinates": [-51.65325024649522, -0.027312160699128646]}}, {"type": "Feature", "properties": {"norad_id": 43633, "name": "HORIZONS-3E", "group": "intelsat", "lat": -0.00863078804104994, "lon": 72.201980933987, "alt_km": 35788.05237707007, "timestamp": "2025-12-21T11:31:42.510354+00:00", "meta": {"OBJECT_NAME": "HORIZONS-3E", "OBJECT_ID": "2018-074B", "EPOCH": "2025-12-20T20:52:53.061312", "MEAN_MOTION": 1.00270825, "ECCENTRICITY": 6.66e-05, "INCLINATION": 0.0092, "RA_OF_ASC_NODE": 228.8409, "ARG_OF_PERICENTER": 76.0136, "MEAN_ANOMALY": 267.0442, "EPHEMERIS_TYPE": 0, "CLASSIFICATION_TYPE": "U", "NORAD_CAT_ID": 43633, "ELEMENT_SET_NO": 999, "REV_AT_EPOCH": 2655, "BSTAR": 0, "MEAN_MOTION_DOT": 0, "MEAN_MOTION_DDOT": 0}, "tle": {"line1": "1 43633U 18074B   25354.87005858  .00000000  00000+0  00000+0 0  9997", "line2": "2 43633   0.0092 228.8409 0000666  76.0136 267.0442  1.00270825 26554"}}, "geometry": {"type": "Point", "coordinates": [72.201980933987, -0.00863078804104994]}}, {"type": "Feature", "properties": {"norad_id": 44333, "name": "AT&T T-16", "group": "intelsat", "lat": 0.027696226971470846, "lon": 162.33893340686654, "alt_km": 35781.964700733806, "timestamp": "2025-12-21T11:31:42.510366+00:00", "meta": {"OBJECT_NAME": "AT&T T-16", "OBJECT_ID": "2019-034A", "EPOCH": "2025-12-20T14:27:46.526976", "MEAN_MOTION": 1.00263761, "ECCENTRICITY": 0.0001552, "INCLINATION": 0.019, "RA_OF_ASC_NODE": 58.344, "ARG_OF_PERICENTER": 92.0528, "MEAN_ANOMALY": 55.1236, "EPHEMERIS_TYPE": 0, "CLASSIFICATION_TYPE": "U", "NORAD_CAT_ID": 44333, "ELEMENT_SET_NO": 999, "REV_AT_EPOCH": 2384, "BSTAR": 0, "MEAN_MOTION_DOT": -9.1e-07, "MEAN_MOTION_DDOT": 0}, "tle": {"line1": "1 44333U 19034A   25354.60262184 -.00000091  00000+0  00000+0 0  9991", "line2": "2 44333   0.0190  58.3440 0001552  92.0528  55.1236  1.00263761 23847"}}, "geometry": {"type": "Point", "coordinates": [162.33893340686654, 0.027696226971470846]}}]}